{
  "type": "FeatureCollection",
  "features": [
    {
      "type": "Feature",
      "properties": {
        "norad_id": 42917,
        "name": "QZS-3 (QZSS/PRN 199)",
        "group": "gnss",
        "lat": 0.023909231174027334,
        "lon": -158.77486255305797,
        "alt_km": 35786.325645146746,
        "timestamp": "2025-12-24T22:42:22.273953+00:00",
        "meta_object_name": "QZS-3 (QZSS/PRN 199)",
        "meta_object_id": "2017-048A",
        "meta_epoch": "2025-12-24T04:48:38.507616",
        "meta_mean_motion": 1.00265938,
        "meta_eccentricity": 0.00019409,
        "meta_inclination": 0.0665,
        "meta_ra_of_asc_node": 179.7982,
        "meta_arg_of_pericenter": 100.9214,
        "meta_mean_anomaly": 11.3827,
        "meta_ephemeris_type": 0,
        "meta_classification_type": "U",
        "meta_norad_cat_id": 42917,
        "meta_element_set_no": 999,
        "meta_rev_at_epoch": 3050,
        "meta_bstar": 0,
        "meta_mean_motion_dot": -3.27e-06,
        "meta_mean_motion_ddot": 0,
        "tle_line1": "1 42917U 17048A   25358.20044569 -.00000327  00000+0  00000+0 0  9997",
        "tle_line2": "2 42917   0.0665 179.7982 0001940 100.9214  11.3827  1.00265938 30500"
      },
      "geometry": {
        "type": "Point",
        "coordinates": [
          -158.77486255305797,
          0.023909231174027334
        ]
      }
    },
    {
      "type": "Feature",
      "properties": {
        "norad_id": 42939,
        "name": "COSMOS 2522 (752)",
        "group": "gnss",
        "lat": -53.047174752378545,
        "lon": 157.51109105735566,
        "alt_km": 19131.438438614154,
        "timestamp": "2025-12-24T22:42:22.273978+00:00",
        "meta_object_name": "COSMOS 2522 (752)",
        "meta_object_id": "2017-055A",
        "meta_epoch": "2025-12-24T02:08:41.637984",
        "meta_mean_motion": 2.13102066,
        "meta_eccentricity": 0.00062718,
        "meta_inclination": 64.0767,
        "meta_ra_of_asc_node": 197.8423,
        "meta_arg_of_pericenter": 223.2382,
        "meta_mean_anomaly": 136.7706,
        "meta_ephemeris_type": 0,
        "meta_classification_type": "U",
        "meta_norad_cat_id": 42939,
        "meta_element_set_no": 999,
        "meta_rev_at_epoch": 6424,
        "meta_bstar": 0,
        "meta_mean_motion_dot": 9.8e-07,
        "meta_mean_motion_ddot": 0,
        "tle_line1": "1 42939U 17055A   25358.08937081  .00000098  00000+0  00000+0 0  9999",
        "tle_line2": "2 42939  64.0767 197.8423 0006271 223.2382 136.7706  2.13102066 64248"
      },
      "geometry": {
        "type": "Point",
        "coordinates": [
          157.51109105735566,
          -53.047174752378545
        ]
      }
    },
    {
      "type": "Feature",
      "properties": {
        "norad_id": 42965,
        "name": "QZS-4 (QZSS/PRN 195)",
        "group": "gnss",
        "lat": -22.93266244301492,
        "lon": -164.27029997122966,
        "alt_km": 33809.859148572265,
        "timestamp": "2025-12-24T22:42:22.273996+00:00",
        "meta_object_name": "QZS-4 (QZSS/PRN 195)",
        "meta_object_id": "2017-062A",
        "meta_epoch": "2025-12-20T12:23:32.377344",
        "meta_mean_motion": 1.00250818,
        "meta_eccentricity": 0.07514763,
        "meta_inclination": 40.2219,
        "meta_ra_of_asc_node": 345.7724,
        "meta_arg_of_pericenter": 271.7049,
        "meta_mean_anomaly": 153.5074,
        "meta_ephemeris_type": 0,
        "meta_classification_type": "U",
        "meta_norad_cat_id": 42965,
        "meta_element_set_no": 999,
        "meta_rev_at_epoch": 3001,
        "meta_bstar": 0,
        "meta_mean_motion_dot": -3.25e-06,
        "meta_mean_motion_ddot": 0,
        "tle_line1": "1 42965U 17062A   25354.51634696 -.00000325  00000+0  00000+0 0  9990",
        "tle_line2": "2 42965  40.2219 345.7724 0751476 271.7049 153.5074  1.00250818 30012"
      },
      "geometry": {
        "type": "Point",
        "coordinates": [
          -164.27029997122966,
          -22.93266244301492
        ]
      }
    },
    {
      "type": "Feature",
      "properties": {
        "norad_id": 43001,
        "name": "BEIDOU-3 M1 (C19)",
        "group": "gnss",
        "lat": -29.912072499729888,
        "lon": -88.81571713114042,
        "alt_km": 21529.838500715043,
        "timestamp": "2025-12-24T22:42:22.274015+00:00",
        "meta_object_name": "BEIDOU-3 M1 (C19)",
        "meta_object_id": "2017-069A",
        "meta_epoch": "2025-12-24T02:03:22.336416",
        "meta_mean_motion": 1.86231054,
        "meta_eccentricity": 0.00099,
        "meta_inclination": 56.5357,
        "meta_ra_of_asc_node": 68.8595,
        "meta_arg_of_pericenter": 302.4649,
        "meta_mean_anomaly": 57.4938,
        "meta_ephemeris_type": 0,
        "meta_classification_type": "U",
        "meta_norad_cat_id": 43001,
        "meta_element_set_no": 999,
        "meta_rev_at_epoch": 5534,
        "meta_bstar": 0,
        "meta_mean_motion_dot": -2.4e-07,
        "meta_mean_motion_ddot": 0,
        "tle_line1": "1 43001U 17069A   25358.08567519 -.00000024  00000+0  00000+0 0  9990",
        "tle_line2": "2 43001  56.5357  68.8595 0009900 302.4649  57.4938  1.86231054 55341"
      },
      "geometry": {
        "type": "Point",
        "coordinates": [
          -88.81571713114042,
          -29.912072499729888
        ]
      }
    },
    {
      "type": "Feature",
      "properties": {
        "norad_id": 43002,
        "name": "BEIDOU-3 M2 (C20)",
        "group": "gnss",
        "lat": -54.73049523321923,
        "lon": -42.04560487637356,
        "alt_km": 21527.438024613577,
        "timestamp": "2025-12-24T22:42:22.274036+00:00",
        "meta_object_name": "BEIDOU-3 M2 (C20)",
        "meta_object_id": "2017-069B",
        "meta_epoch": "2025-12-22T09:54:58.962816",
        "meta_mean_motion": 1.86231087,
        "meta_eccentricity": 0.00067293,
        "meta_inclination": 56.5339,
        "meta_ra_of_asc_node": 68.9503,
        "meta_arg_of_pericenter": 327.7398,
        "meta_mean_anomaly": 32.2697,
        "meta_ephemeris_type": 0,
        "meta_classification_type": "U",
        "meta_norad_cat_id": 43002,
        "meta_element_set_no": 999,
        "meta_rev_at_epoch": 5530,
        "meta_bstar": 0,
        "meta_mean_motion_dot": -2.8e-07,
        "meta_mean_motion_ddot": 0,
        "tle_line1": "1 43002U 17069B   25356.41318244 -.00000028  00000+0  00000+0 0  9999",
        "tle_line2": "2 43002  56.5339  68.9503 0006729 327.7398  32.2697  1.86231087 55304"
      },
      "geometry": {
        "type": "Point",
        "coordinates": [
          -42.04560487637356,
          -54.73049523321923
        ]
      }
    },
    {
      "type": "Feature",
      "properties": {
        "norad_id": 43055,
        "name": "GSAT0215 (GALILEO 19)",
        "group": "gnss",
        "lat": 55.10550170937494,
        "lon": -45.24959792254365,
        "alt_km": 23216.40318720967,
        "timestamp": "2025-12-24T22:42:22.274054+00:00",
        "meta_object_name": "GSAT0215 (GALILEO 19)",
        "meta_object_id": "2017-079A",
        "meta_epoch": "2025-12-21T06:45:20.639232",
        "meta_mean_motion": 1.70474038,
        "meta_eccentricity": 0.0001214,
        "meta_inclination": 55.1273,
        "meta_ra_of_asc_node": 226.4024,
        "meta_arg_of_pericenter": 349.3948,
        "meta_mean_anomaly": 10.7111,
        "meta_ephemeris_type": 0,
        "meta_classification_type": "U",
        "meta_norad_cat_id": 43055,
        "meta_element_set_no": 999,
        "meta_rev_at_epoch": 4995,
        "meta_bstar": 0,
        "meta_mean_motion_dot": 7.3e-07,
        "meta_mean_motion_ddot": 0,
        "tle_line1": "1 43055U 17079A   25355.28148888  .00000073  00000+0  00000+0 0  9996",
        "tle_line2": "2 43055  55.1273 226.4024 0001214 349.3948  10.7111  1.70474038 49952"
      },
      "geometry": {
        "type": "Point",
        "coordinates": [
          -45.24959792254365,
          55.10550170937494
        ]
      }
    },
    {
      "type": "Feature",
      "properties": {
        "norad_id": 43056,
        "name": "GSAT0216 (GALILEO 20)",
        "group": "gnss",
        "lat": -55.114842273034206,
        "lon": 136.82764094418567,
        "alt_km": 23224.20259268199,
        "timestamp": "2025-12-24T22:42:22.274074+00:00",
        "meta_object_name": "GSAT0216 (GALILEO 20)",
        "meta_object_id": "2017-079B",
        "meta_epoch": "2025-12-22T17:54:08.003808",
        "meta_mean_motion": 1.70474127,
        "meta_eccentricity": 0.00023154,
        "meta_inclination": 55.1272,
        "meta_ra_of_asc_node": 226.3621,
        "meta_arg_of_pericenter": 325.7724,
        "meta_mean_anomaly": 34.3161,
        "meta_ephemeris_type": 0,
        "meta_classification_type": "U",
        "meta_norad_cat_id": 43056,
        "meta_element_set_no": 999,
        "meta_rev_at_epoch": 4999,
        "meta_bstar": 0,
        "meta_mean_motion_dot": 7.3e-07,
        "meta_mean_motion_ddot": 0,
        "tle_line1": "1 43056U 17079B   25356.74592597  .00000073  00000+0  00000+0 0  9999",
        "tle_line2": "2 43056  55.1272 226.3621 0002315 325.7724  34.3161  1.70474127 49997"
      },
      "geometry": {
        "type": "Point",
        "coordinates": [
          136.82764094418567,
          -55.114842273034206
        ]
      }
    }
  ]
}